NORAD_CAT_ID,OBJECT_NAME,OBJECT_TYPE,EPOCH,MEAN_MOTION,ECCENTRICITY,INCLINATION,RA_OF_ASC_NODE,ARG_OF_PERICENTER,MEAN_ANOMALY,BSTAR,MEAN_MOTION_DOT,MEAN_MOTION_DDOT,TLE_LINE0,TLE_LINE1,TLE_LINE2,SEMIMAJOR_AXIS,PERIOD,APOGEE,PERIGEE,DECAYED
55285.0,STARLINK-5332,PAYLOAD,2023-05-18 21:09:37,15.69912617,0.0003908,69.9967,93.2247,264.837,95.238,-1.2139e-05,-1.672e-05,0.0,0 STARLINK-5332,1 55285U 23010S   23138.88168063 -.00001672  00000-0 -12139-4 0  9996,2 55285  69.9967  93.2247 0003908 264.8370  95.2380 15.69912617 20433,6737.284,91.725,361.782,356.516,0.0
55285.0,STARLINK-5332,PAYLOAD,2023-05-19 03:16:37,15.69920373,0.0003008,69.9983,92.5104,259.9725,100.1131,-4.043e-08,-2.17e-06,0.0,0 STARLINK-5332,1 55285U 23010S   23139.13654155 -.00000217  00000-0 -40430-7 0  9999,2 55285  69.9983  92.5104 0003008 259.9725 100.1131 15.69920373 19284,6737.262,91.724,361.153,357.1,0.0
55285.0,STARLINK-5332,PAYLOAD,2023-05-19 21:37:38,15.69928403,0.0003488,69.9976,90.3596,267.2517,92.828,-2.1109e-05,-2.751e-05,0.0,0 STARLINK-5332,1 55285U 23010S   23139.90114473 -.00002751  00000-0 -21109-4 0  9992,2 55285  69.9976  90.3596 0003488 267.2517  92.8280 15.69928403 20590,6737.239,91.724,361.454,356.754,0.0
55285.0,STARLINK-5332,PAYLOAD,2023-05-20 06:48:08,15.69945339,0.0003567,69.998,89.2852,267.592,92.4867,7.7148e-07,-1.2e-06,0.0,0 STARLINK-5332,1 55285U 23010S   23140.28342743 -.00000120  00000-0  77148-6 0  9991,2 55285  69.9980  89.2852 0003567 267.5920  92.4867 15.69945339 19464,6737.19,91.723,361.459,356.652,0.0
55285.0,STARLINK-5332,PAYLOAD,2023-05-21 02:40:55,15.6992604,0.0003545,69.9974,86.9569,264.9751,95.104,1.3185e-05,1.373e-05,0.0,0 STARLINK-5332,1 55285U 23010S   23141.11175629  .00001373  00000-0  13185-4 0  9990,2 55285  69.9974  86.9569 0003545 264.9751  95.1040 15.69926040 19590,6737.246,91.724,361.499,356.722,0.0
55285.0,STARLINK-5332,PAYLOAD,2023-05-21 05:44:26,15.69915575,0.0003563,69.9973,86.5977,264.9362,95.1427,1.2734e-05,1.318e-05,0.0,0 STARLINK-5332,1 55285U 23010S   23141.23919520  .00001318  00000-0  12734-4 0  9997,2 55285  69.9973  86.5977 0003563 264.9362  95.1427 15.69915575 19619,6737.276,91.725,361.541,356.74,0.0
55285.0,STARLINK-5332,PAYLOAD,2023-05-21 19:30:13,15.69924293,0.0003572,69.9972,84.9858,264.9291,95.1497,-1.3246e-05,-1.805e-05,0.0,0 STARLINK-5332,1 55285U 23010S   23141.81265075 -.00001805  00000-0 -13246-4 0  9992,2 55285  69.9972  84.9858 0003572 264.9291  95.1497 15.69924293 20895,6737.251,91.724,361.522,356.709,0.0
55285.0,STARLINK-5332,PAYLOAD,2023-05-22 06:12:28,15.69932239,0.0003037,69.9975,83.73,254.7074,105.3786,-3.3257e-06,-6.13e-06,0.0,0 STARLINK-5332,1 55285U 23010S   23142.25865872 -.00000613  00000-0 -33257-5 0  9993,2 55285  69.9975  83.7300 0003037 254.7074 105.3786 15.69932239 19778,6737.228,91.724,361.139,357.047,0.0
55285.0,STARLINK-5332,PAYLOAD,2023-05-23 05:08:45,15.69927115,0.000331,69.9983,81.0448,263.5738,96.5081,-2.122e-06,-4.68e-06,0.0,0 STARLINK-5332,1 55285U 23010S   23143.21441273 -.00000468  00000-0 -21220-5 0  9990,2 55285  69.9983  81.0448 0003310 263.5738  96.5081 15.69927115 19923,6737.243,91.724,361.338,356.877,0.0
55285.0,STARLINK-5332,PAYLOAD,2023-05-23 20:26:17,15.69913438,0.0002673,69.9978,79.256,279.2908,80.7986,1.7961e-05,1.947e-05,0.0,0 STARLINK-5332,1 55285U 23010S   23143.85158627  .00001947  00000-0  17961-4 0  9995,2 55285  69.9978  79.2560 0002673 279.2908  80.7986 15.69913438 21212,6737.282,91.725,360.948,357.346,0.0
55285.0,STARLINK-5332,PAYLOAD,2023-05-24 02:33:17,15.6991936,0.0002987,69.9983,78.5373,262.5893,97.4964,8.0811e-06,7.59e-06,0.0,0 STARLINK-5332,1 55285U 23010S   23144.10645100  .00000759  00000-0  80811-5 0  9996,2 55285  69.9983  78.5373 0002987 262.5893  97.4964 15.69919360 20061,6737.265,91.724,361.142,357.117,0.0
55285.0,STARLINK-5332,PAYLOAD,2023-05-24 05:36:47,15.69921375,0.0003163,69.9988,78.1788,260.7893,99.2945,1.1114e-06,-7.9e-07,0.0,0 STARLINK-5332,1 55285U 23010S   23144.23388473 -.00000079  00000-0  11114-5 0  9993,2 55285  69.9988  78.1788 0003163 260.7893  99.2945 15.69921375 21271,6737.259,91.724,361.255,356.993,0.0
55285.0,STARLINK-5332,PAYLOAD,2023-05-25 21:22:20,15.69927202,0.0003347,69.998,73.5211,264.8111,95.2703,7.623e-06,7.04e-06,0.0,0 STARLINK-5332,1 55285U 23010S   23145.89051196  .00000704  00000-0  76230-5 0  9999,2 55285  69.9980  73.5211 0003347 264.8111  95.2703 15.69927202 21537,6737.242,91.724,361.362,356.852,0.0
55285.0,STARLINK-5332,PAYLOAD,2023-05-26 05:01:06,15.69914739,0.0003373,69.9982,72.6248,274.2078,85.8732,-6.6444e-06,-1.011e-05,0.0,0 STARLINK-5332,1 55285U 23010S   23146.20910744 -.00001011  00000-0 -66444-5 0  9998,2 55285  69.9982  72.6248 0003373 274.2078  85.8732 15.69914739 20396,6737.278,91.725,361.415,356.87,0.0
55285.0,STARLINK-5332,PAYLOAD,2023-05-26 21:50:22,15.69918164,0.0003549,69.998,70.6538,271.682,88.3969,4.991e-06,3.87e-06,0.0,0 STARLINK-5332,1 55285U 23010S   23146.90998719  .00000387  00000-0  49910-5 0  9995,2 55285  69.9980  70.6538 0003549 271.6820  88.3969 15.69918164 21695,6737.268,91.725,361.524,356.742,0.0
55285.0,STARLINK-5332,PAYLOAD,2023-05-27 03:57:23,15.69921039,0.0002946,69.9997,69.9392,259.0446,101.0418,9.594e-06,9.41e-06,0.0,0 STARLINK-5332,1 55285U 23010S   23147.16485138  .00000941  00000-0  95940-5 0  9990,2 55285  69.9997  69.9392 0002946 259.0446 101.0418 15.69921039 20546,6737.26,91.724,361.11,357.14,0.0
55285.0,STARLINK-5332,PAYLOAD,2023-05-27 22:18:24,15.69916267,0.0002773,69.9997,67.7897,262.5048,97.5833,1.2836e-05,1.331e-05,0.0,0 STARLINK-5332,1 55285U 23010S   23147.92945361  .00001331  00000-0  12836-4 0  9999,2 55285  69.9997  67.7897 0002773 262.5048  97.5833 15.69916267 21859,6737.274,91.725,361.007,357.27,0.0
55285.0,STARLINK-5332,PAYLOAD,2023-05-28 04:25:26,15.69901805,0.0002556,70.0,67.0734,260.3458,99.7449,-3.2267e-06,-6e-06,0.0,0 STARLINK-5332,1 55285U 23010S   23148.18433465 -.00000600  00000-0 -32267-5 0  9996,2 55285  70.0000  67.0734 0002556 260.3458  99.7449 15.69901805 20702,6737.315,91.725,360.902,357.458,0.0
55285.0,STARLINK-5332,PAYLOAD,2023-05-28 21:14:41,15.69925316,0.0003352,69.9987,65.1011,268.2366,91.8446,2.7732e-06,1.21e-06,0.0,0 STARLINK-5332,1 55285U 23010S   23148.88520258  .00000121  00000-0  27732-5 0  9997,2 55285  69.9987  65.1011 0003352 268.2366  91.8446 15.69925316 20815,6737.248,91.724,361.371,356.854,0.0
55285.0,STARLINK-5332,PAYLOAD,2023-05-29 03:21:42,15.69922326,0.0003031,69.9997,64.3862,262.4305,97.6547,4.2878e-06,3.03e-06,0.0,0 STARLINK-5332,1 55285U 23010S   23149.14007067  .00000303  00000-0  42878-5 0  9995,2 55285  69.9997  64.3862 0003031 262.4305  97.6547 15.69922326 22045,6737.256,91.724,361.163,357.079,0.0
55285.0,STARLINK-5332,PAYLOAD,2023-05-29 20:10:58,15.69946798,0.0002764,69.9997,62.4159,255.8874,104.2015,-4.9916e-05,-6.215e-05,0.0,0 STARLINK-5332,1 55285U 23010S   23149.84095773 -.00006215  00000-0 -49916-4 0  9992,2 55285  69.9997  62.4159 0002764 255.8874 104.2015 15.69946798 22158,6737.186,91.723,360.913,357.189,0.0
55285.0,STARLINK-5332,PAYLOAD,2023-05-30 03:49:44,15.699174,0.0003396,69.9989,61.5196,263.5019,96.579,-6.2974e-06,-9.7e-06,0.0,0 STARLINK-5332,1 55285U 23010S   23150.15954432 -.00000970  00000-0 -62974-5 0  9996,2 55285  69.9989  61.5196 0003396 263.5019  96.5790 15.69917400 21014,6737.27,91.725,361.423,356.847,0.0
55285.0,STARLINK-5332,PAYLOAD,2023-05-30 19:07:15,15.69925072,0.0003344,69.9992,59.7279,264.2857,95.7958,3.9776e-06,2.66e-06,0.0,0 STARLINK-5332,1 55285U 23010S   23150.79670391  .00000266  00000-0  39776-5 0  9995,2 55285  69.9992  59.7279 0003344 264.2857  95.7958 15.69925072 21112,6737.248,91.724,361.366,356.86,0.0
55285.0,STARLINK-5332,PAYLOAD,2023-05-30 20:39:00,15.69926209,0.0003165,69.9998,59.5495,258.8675,101.2165,7.719e-06,7.16e-06,0.0,0 STARLINK-5332,1 55285U 23010S   23150.86041869  .00000716  00000-0  77190-5 0  9997,2 55285  69.9998  59.5495 0003165 258.8675 101.2165 15.69926209 22313,6737.245,91.724,361.242,356.978,0.0
55285.0,STARLINK-5332,PAYLOAD,2023-05-31 04:17:45,15.69927873,0.0003477,69.9989,58.6528,265.5697,94.5102,9.5642e-06,9.37e-06,0.0,0 STARLINK-5332,1 55285U 23010S   23151.17900065  .00000937  00000-0  95642-5 0  9991,2 55285  69.9989  58.6528 0003477 265.5697  94.5102 15.69927873 22363,6737.24,91.724,361.448,356.763,0.0
55285.0,STARLINK-5332,PAYLOAD,2023-05-31 21:07:02,15.69923238,0.0003434,69.9986,56.6811,271.9119,88.1683,-5.7802e-07,-2.82e-06,0.0,0 STARLINK-5332,1 55285U 23010S   23151.87989158 -.00000282  00000-0 -57802-6 0  9990,2 55285  69.9986  56.6811 0003434 271.9119  88.1683 15.69923238 22472,6737.254,91.724,361.432,356.805,0.0
55285.0,STARLINK-5332,PAYLOAD,2023-06-01 01:42:16,15.69941391,0.0003082,69.9985,56.1437,260.0671,100.0177,1.8662e-05,2.033e-05,0.0,0 STARLINK-5332,1 55285U 23010S   23152.07102473  .00002033  00000-0  18662-4 0  9993,2 55285  69.9985  56.1437 0003082 260.0671 100.0177 15.69941391 21315,6737.202,91.723,361.143,356.99,0.0
55285.0,STARLINK-5332,PAYLOAD,2023-06-01 03:14:01,15.69940875,0.0003161,69.9979,55.9637,260.9817,99.1021,1.8841e-05,2.055e-05,0.0,0 STARLINK-5332,1 55285U 23010S   23152.13474105  .00002055  00000-0  18841-4 0  9997,2 55285  69.9979  55.9637 0003161 260.9817  99.1021 15.69940875 22511,6737.203,91.723,361.198,356.939,0.0
55285.0,STARLINK-5332,PAYLOAD,2023-06-02 02:10:20,15.69921259,0.0002674,69.9997,53.2798,258.3113,101.7783,-9.1036e-06,-1.306e-05,0.0,0 STARLINK-5332,1 55285U 23010S   23153.09051194 -.00001306  00000-0 -91036-5 0  9990,2 55285  69.9997  53.2798 0002674 258.3113 101.7783 15.69921259 21472,6737.259,91.724,360.926,357.323,0.0
55285.0,STARLINK-5332,PAYLOAD,2023-06-02 03:42:05,15.69916268,0.0002886,69.9989,53.0993,266.173,93.9135,-1.4868e-05,-1.999e-05,0.0,0 STARLINK-5332,1 55285U 23010S   23153.15423263 -.00001999  00000-0 -14868-4 0  9992,2 55285  69.9989  53.0993 0002886 266.1730  93.9135 15.69916268 22675,6737.274,91.725,361.083,357.194,0.0
